{
  "norad_id": 57339,
  "name": "STARLINK-6332",
  "history": [
    {
      "epoch": "2026-04-13T06:28:57.523008Z",
      "apogee_km": 484.0491839092492,
      "perigee_km": 482.08797690614574,
      "latitude_deg": 7.879216314964969e-06,
      "longitude_deg": 118.52462730820253,
      "height_km": 482.838688045803,
      "semi_major_axis_km": 6861.205580407697,
      "eccentricity": 0.00014292,
      "inclination_deg": 43.004,
      "raan_deg": 57.2276,
      "arg_perigee_deg": 270.4128,
      "mean_anomaly_deg": 89.656,
      "mean_motion_rev_day": 15.27573493
    },
    {
      "epoch": "2026-04-14T04:27:08.711136Z",
      "apogee_km": 484.0603042663879,
      "perigee_km": 482.05505150982844,
      "latitude_deg": 5.337047382491848e-05,
      "longitude_deg": 142.9061927469567,
      "height_km": 482.8243225332812,
      "semi_major_axis_km": 6861.194677888107,
      "eccentricity": 0.00014613,
      "inclination_deg": 43.0046,
      "raan_deg": 52.058,
      "arg_perigee_deg": 270.6067,
      "mean_anomaly_deg": 89.4618,
      "mean_motion_rev_day": 15.27577134
    },
    {
      "epoch": "2026-04-15T21:15:13.055328Z",
      "apogee_km": 484.0462418062925,
      "perigee_km": 482.040032734154,
      "latitude_deg": -1.1048559642047536e-05,
      "longitude_deg": -120.38901975799877,
      "height_km": 482.8346804697636,
      "semi_major_axis_km": 6861.180137270223,
      "eccentricity": 0.0001462,
      "inclination_deg": 43.0049,
      "raan_deg": 42.4566,
      "arg_perigee_deg": 269.1863,
      "mean_anomaly_deg": 90.8821,
      "mean_motion_rev_day": 15.2758199
    },
    {
      "epoch": "2026-04-16T12:56:46.078944Z",
      "apogee_km": 484.3767047075844,
      "perigee_km": 481.62264444640914,
      "latitude_deg": 8.024926202238631e-06,
      "longitude_deg": -0.11486491642412547,
      "height_km": 482.82786875305436,
      "semi_major_axis_km": 6861.1366745769965,
      "eccentricity": 0.0002007,
      "inclination_deg": 43.0065,
      "raan_deg": 38.7628,
      "arg_perigee_deg": 267.9066,
      "mean_anomaly_deg": 92.1556,
      "mean_motion_rev_day": 15.27596505
    },
    {
      "epoch": "2026-04-17T12:29:07.151424Z",
      "apogee_km": 484.41128035185466,
      "perigee_km": 481.6356664939376,
      "latitude_deg": 3.398223836533946e-06,
      "longitude_deg": 0.29170957239587325,
      "height_km": 482.82017314012285,
      "semi_major_axis_km": 6861.160473422896,
      "eccentricity": 0.00020227,
      "inclination_deg": 43.007,
      "raan_deg": 33.2239,
      "arg_perigee_deg": 269.2266,
      "mean_anomaly_deg": 90.8354,
      "mean_motion_rev_day": 15.27588557
    },
    {
      "epoch": "2026-04-18T12:01:27.968160Z",
      "apogee_km": 484.74345720348265,
      "perigee_km": 481.3652810209869,
      "latitude_deg": -3.80034134506939e-05,
      "longitude_deg": 0.696312452610467,
      "height_km": 483.27466055864613,
      "semi_major_axis_km": 6861.1913691122345,
      "eccentricity": 0.00024618,
      "inclination_deg": 43.01,
      "raan_deg": 27.682,
      "arg_perigee_deg": 254.8376,
      "mean_anomaly_deg": 105.2203,
      "mean_motion_rev_day": 15.27578239
    },
    {
      "epoch": "2026-04-19T11:33:48.752928Z",
      "apogee_km": 484.22979438579387,
      "perigee_km": 481.86007936843544,
      "latitude_deg": -8.623858246973072e-06,
      "longitude_deg": 1.1078231936561882,
      "height_km": 482.88642761669473,
      "semi_major_axis_km": 6861.181936877114,
      "eccentricity": 0.00017269,
      "inclination_deg": 43.0075,
      "raan_deg": 22.1468,
      "arg_perigee_deg": 266.9182,
      "mean_anomaly_deg": 93.1472,
      "mean_motion_rev_day": 15.27581389
    },
    {
      "epoch": "2026-04-20T11:06:10.050048Z",
      "apogee_km": 484.4281244982103,
      "perigee_km": 481.729745495295,
      "latitude_deg": -1.6385741577198862e-05,
      "longitude_deg": 1.5142526292650356,
      "height_km": 483.02903083119713,
      "semi_major_axis_km": 6861.215934996752,
      "eccentricity": 0.00019664,
      "inclination_deg": 43.0065,
      "raan_deg": 16.6087,
      "arg_perigee_deg": 262.6648,
      "mean_anomaly_deg": 97.398,
      "mean_motion_rev_day": 15.27570035
    },
    {
      "epoch": "2026-04-21T10:38:30.561792Z",
      "apogee_km": 484.41511760288813,
      "perigee_km": 481.70782590990166,
      "latitude_deg": 3.212536615123364e-05,
      "longitude_deg": 1.9214227477473187,
      "height_km": 483.11825577694634,
      "semi_major_axis_km": 6861.198471756395,
      "eccentricity": 0.00019729,
      "inclination_deg": 43.007,
      "raan_deg": 11.068,
      "arg_perigee_deg": 258.1088,
      "mean_anomaly_deg": 101.9543,
      "mean_motion_rev_day": 15.27575867
    },
    {
      "epoch": "2026-04-22T02:20:04.309440Z",
      "apogee_km": 484.33543844434007,
      "perigee_km": 481.780055072858,
      "latitude_deg": 4.000757602415769e-05,
      "longitude_deg": 122.19463765456108,
      "height_km": 483.01330350718104,
      "semi_major_axis_km": 6861.194746758599,
      "eccentricity": 0.00018622,
      "inclination_deg": 43.0066,
      "raan_deg": 7.3763,
      "arg_perigee_deg": 262.0012,
      "mean_anomaly_deg": 98.0629,
      "mean_motion_rev_day": 15.27577111
    },
    {
      "epoch": "2026-04-23T01:52:25.765536Z",
      "apogee_km": 484.13734167107395,
      "perigee_km": 482.0410998361094,
      "latitude_deg": -1.2451081098409828e-05,
      "longitude_deg": 122.59915456373909,
      "height_km": 482.9476222563519,
      "semi_major_axis_km": 6861.226220753591,
      "eccentricity": 0.00015276,
      "inclination_deg": 43.0065,
      "raan_deg": 1.837,
      "arg_perigee_deg": 265.5741,
      "mean_anomaly_deg": 94.4936,
      "mean_motion_rev_day": 15.275666
    },
    {
      "epoch": "2026-04-24T09:15:33.035328Z",
      "apogee_km": 484.2414996431844,
      "perigee_km": 481.878503395862,
      "latitude_deg": 8.965297819501307e-06,
      "longitude_deg": 3.142933976071396,
      "height_km": 483.0226592543076,
      "semi_major_axis_km": 6861.197001519523,
      "eccentricity": 0.0001722,
      "inclination_deg": 43.0087,
      "raan_deg": 354.45,
      "arg_perigee_deg": 261.0028,
      "mean_anomaly_deg": 99.0629,
      "mean_motion_rev_day": 15.27576358
    },
    {
      "epoch": "2026-04-25T16:38:40.932384Z",
      "apogee_km": 483.8410546749474,
      "perigee_km": 482.30277163661776,
      "latitude_deg": -1.8187512309462506e-05,
      "longitude_deg": -116.31245775849416,
      "height_km": 482.86274260649725,
      "semi_major_axis_km": 6861.208913155782,
      "eccentricity": 0.0001121,
      "inclination_deg": 43.0067,
      "raan_deg": 347.0665,
      "arg_perigee_deg": 268.9856,
      "mean_anomaly_deg": 91.0867,
      "mean_motion_rev_day": 15.2757238
    },
    {
      "epoch": "2026-04-26T16:11:00.856608Z",
      "apogee_km": 483.78688265112123,
      "perigee_km": 482.2480629259644,
      "latitude_deg": 3.975724322444746e-06,
      "longitude_deg": -115.90025832272673,
      "height_km": 482.66565569439285,
      "semi_major_axis_km": 6861.154472788543,
      "eccentricity": 0.00011214,
      "inclination_deg": 43.0038,
      "raan_deg": 341.5284,
      "arg_perigee_deg": 279.6299,
      "mean_anomaly_deg": 80.4426,
      "mean_motion_rev_day": 15.27590561
    },
    {
      "epoch": "2026-04-27T07:52:35.031936Z",
      "apogee_km": 483.44932189832434,
      "perigee_km": 482.6822394274459,
      "latitude_deg": 9.151393934799893e-06,
      "longitude_deg": 4.369368964871213,
      "height_km": 483.0074170900921,
      "semi_major_axis_km": 6861.202780662885,
      "eccentricity": 5.59e-05,
      "inclination_deg": 43.0007,
      "raan_deg": 337.8349,
      "arg_perigee_deg": 244.4075,
      "mean_anomaly_deg": 115.6719,
      "mean_motion_rev_day": 15.27574428
    },
    {
      "epoch": "2026-04-28T15:15:43.617600Z",
      "apogee_km": 484.14089551077086,
      "perigee_km": 481.9755023059952,
      "latitude_deg": 3.459224345970043e-05,
      "longitude_deg": -115.09064215484234,
      "height_km": 482.92526835406306,
      "semi_major_axis_km": 6861.195198908383,
      "eccentricity": 0.0001578,
      "inclination_deg": 43.0056,
      "raan_deg": 330.4496,
      "arg_perigee_deg": 265.252,
      "mean_anomaly_deg": 94.8152,
      "mean_motion_rev_day": 15.2757696
    },
    {
      "epoch": "2026-04-29T14:48:04.487040Z",
      "apogee_km": 484.0681159257765,
      "perigee_km": 482.1016897284262,
      "latitude_deg": -3.365268974288087e-05,
      "longitude_deg": -114.68228823967499,
      "height_km": 482.84455286275346,
      "semi_major_axis_km": 6861.221902827101,
      "eccentricity": 0.0001433,
      "inclination_deg": 43.0054,
      "raan_deg": 324.9117,
      "arg_perigee_deg": 271.0308,
      "mean_anomaly_deg": 89.0379,
      "mean_motion_rev_day": 15.27568042
    },
    {
      "epoch": "2026-04-30T14:20:25.126656Z",
      "apogee_km": 483.98742452469196,
      "perigee_km": 482.12694310980805,
      "latitude_deg": 4.792874421843381e-05,
      "longitude_deg": -114.27431494738778,
      "height_km": 482.8351380379861,
      "semi_major_axis_km": 6861.19418381725,
      "eccentricity": 0.00013558,
      "inclination_deg": 43.0044,
      "raan_deg": 319.3723,
      "arg_perigee_deg": 269.9505,
      "mean_anomaly_deg": 90.1192,
      "mean_motion_rev_day": 15.27577299
    },
    {
      "epoch": "2026-05-02T05:34:19.894080Z",
      "apogee_km": 483.90562539445637,
      "perigee_km": 482.210910163315,
      "latitude_deg": 4.002360546296456e-05,
      "longitude_deg": 6.404680922037551,
      "height_km": 482.7796137122012,
      "semi_major_axis_km": 6861.195267778886,
      "eccentricity": 0.0001235,
      "inclination_deg": 43.0031,
      "raan_deg": 310.1407,
      "arg_perigee_deg": 273.7598,
      "mean_anomaly_deg": 86.3113,
      "mean_motion_rev_day": 15.27576937
    }
  ]
}